[{"OBJECT_NAME":"UNKNOWN","OBJECT_ID":"","EPOCH":"2026-03-27T10:52:48.646848","MEAN_MOTION":14.15998955,"ECCENTRICITY":0.0084071,"INCLINATION":99.0113,"RA_OF_ASC_NODE":160.5721,"ARG_OF_PERICENTER":106.9991,"MEAN_ANOMALY":254.0416,"EPHEMERIS_TYPE":0,"CLASSIFICATION_TYPE":"U","NORAD_CAT_ID":82139,"ELEMENT_SET_NO":999,"REV_AT_EPOCH":49493,"BSTAR":0.00094119,"MEAN_MOTION_DOT":1.876e-5,"MEAN_MOTION_DDOT":0},{"OBJECT_NAME":"UNKNOWN","OBJECT_ID":"","EPOCH":"2026-03-28T02:13:39.015552","MEAN_MOTION":13.54477601,"ECCENTRICITY":0.0060076,"INCLINATION":100.4697,"RA_OF_ASC_NODE":22.6681,"ARG_OF_PERICENTER":338.2346,"MEAN_ANOMALY":21.6237,"EPHEMERIS_TYPE":0,"CLASSIFICATION_TYPE":"U","NORAD_CAT_ID":82162,"ELEMENT_SET_NO":999,"REV_AT_EPOCH":51856,"BSTAR":0.0044628,"MEAN_MOTION_DOT":3.034e-5,"MEAN_MOTION_DDOT":0},{"OBJECT_NAME":"UNKNOWN","OBJECT_ID":"","EPOCH":"2026-03-27T03:14:37.165632","MEAN_MOTION":14.55132537,"ECCENTRICITY":0.029318,"INCLINATION":65.6557,"RA_OF_ASC_NODE":352.2552,"ARG_OF_PERICENTER":163.3746,"MEAN_ANOMALY":197.7227,"EPHEMERIS_TYPE":0,"CLASSIFICATION_TYPE":"U","NORAD_CAT_ID":82180,"ELEMENT_SET_NO":999,"REV_AT_EPOCH":61691,"BSTAR":0.0012428,"MEAN_MOTION_DOT":9.511e-5,"MEAN_MOTION_DDOT":0},{"OBJECT_NAME":"UNKNOWN","OBJECT_ID":"","EPOCH":"2026-03-25T02:35:51.198144","MEAN_MOTION":14.35292302,"ECCENTRICITY":0.0016044,"INCLINATION":74.0344,"RA_OF_ASC_NODE":220.5997,"ARG_OF_PERICENTER":23.7052,"MEAN_ANOMALY":336.4836,"EPHEMERIS_TYPE":0,"CLASSIFICATION_TYPE":"U","NORAD_CAT_ID":82189,"ELEMENT_SET_NO":999,"REV_AT_EPOCH":64710,"BSTAR":0.00011306,"MEAN_MOTION_DOT":2.98e-6,"MEAN_MOTION_DDOT":0},{"OBJECT_NAME":"UNKNOWN","OBJECT_ID":"","EPOCH":"2026-03-28T03:48:07.360128","MEAN_MOTION":13.85907511,"ECCENTRICITY":0.0039348,"INCLINATION":82.9684,"RA_OF_ASC_NODE":154.6406,"ARG_OF_PERICENTER":98.5176,"MEAN_ANOMALY":291.312,"EPHEMERIS_TYPE":0,"CLASSIFICATION_TYPE":"U","NORAD_CAT_ID":82199,"ELEMENT_SET_NO":999,"REV_AT_EPOCH":62429,"BSTAR":0.00037115,"MEAN_MOTION_DOT":4.45e-6,"MEAN_MOTION_DDOT":0},{"OBJECT_NAME":"UNKNOWN","OBJECT_ID":"","EPOCH":"2026-03-27T08:30:30.182400","MEAN_MOTION":13.94084628,"ECCENTRICITY":0.0496885,"INCLINATION":63.0092,"RA_OF_ASC_NODE":308.1864,"ARG_OF_PERICENTER":303.804,"MEAN_ANOMALY":51.6624,"EPHEMERIS_TYPE":0,"CLASSIFICATION_TYPE":"U","NORAD_CAT_ID":82205,"ELEMENT_SET_NO":999,"REV_AT_EPOCH":62258,"BSTAR":0.0003834,"MEAN_MOTION_DOT":1.301e-5,"MEAN_MOTION_DDOT":0},{"OBJECT_NAME":"UNKNOWN","OBJECT_ID":"","EPOCH":"2026-03-25T15:35:50.612640","MEAN_MOTION":14.12420409,"ECCENTRICITY":0.0069814,"INCLINATION":99.3143,"RA_OF_ASC_NODE":339.6198,"ARG_OF_PERICENTER":57.1356,"MEAN_ANOMALY":303.6508,"EPHEMERIS_TYPE":0,"CLASSIFICATION_TYPE":"U","NORAD_CAT_ID":82223,"ELEMENT_SET_NO":999,"REV_AT_EPOCH":46331,"BSTAR":0.0013273,"MEAN_MOTION_DOT":2.459e-5,"MEAN_MOTION_DDOT":0},{"OBJECT_NAME":"UNKNOWN","OBJECT_ID":"","EPOCH":"2026-03-27T05:50:27.954240","MEAN_MOTION":14.14708813,"ECCENTRICITY":0.0069143,"INCLINATION":98.9062,"RA_OF_ASC_NODE":356.401,"ARG_OF_PERICENTER":256.9155,"MEAN_ANOMALY":255.4636,"EPHEMERIS_TYPE":0,"CLASSIFICATION_TYPE":"U","NORAD_CAT_ID":82250,"ELEMENT_SET_NO":999,"REV_AT_EPOCH":63140,"BSTAR":0.0015796,"MEAN_MOTION_DOT":3.067e-5,"MEAN_MOTION_DDOT":0},{"OBJECT_NAME":"UNKNOWN","OBJECT_ID":"","EPOCH":"2026-03-28T00:42:12.805632","MEAN_MOTION":12.33652062,"ECCENTRICITY":0.0754539,"INCLINATION":67.5295,"RA_OF_ASC_NODE":10.0537,"ARG_OF_PERICENTER":38.4499,"MEAN_ANOMALY":326.7865,"EPHEMERIS_TYPE":0,"CLASSIFICATION_TYPE":"U","NORAD_CAT_ID":82272,"ELEMENT_SET_NO":999,"REV_AT_EPOCH":28492,"BSTAR":0.0031331,"MEAN_MOTION_DOT":9.68e-6,"MEAN_MOTION_DDOT":0},{"OBJECT_NAME":"UNKNOWN","OBJECT_ID":"","EPOCH":"2026-03-28T06:11:35.255616","MEAN_MOTION":13.9296379,"ECCENTRICITY":0.0038639,"INCLINATION":81.9374,"RA_OF_ASC_NODE":271.5593,"ARG_OF_PERICENTER":8.9284,"MEAN_ANOMALY":169.8276,"EPHEMERIS_TYPE":0,"CLASSIFICATION_TYPE":"U","NORAD_CAT_ID":82303,"ELEMENT_SET_NO":999,"REV_AT_EPOCH":52908,"BSTAR":0.022928,"MEAN_MOTION_DOT":0.00030057,"MEAN_MOTION_DDOT":0},{"OBJECT_NAME":"UNKNOWN","OBJECT_ID":"","EPOCH":"2026-03-28T14:22:22.237536","MEAN_MOTION":13.54688987,"ECCENTRICITY":0.0108309,"INCLINATION":99.4202,"RA_OF_ASC_NODE":141.5859,"ARG_OF_PERICENTER":41.9861,"MEAN_ANOMALY":318.9517,"EPHEMERIS_TYPE":0,"CLASSIFICATION_TYPE":"U","NORAD_CAT_ID":82311,"ELEMENT_SET_NO":999,"REV_AT_EPOCH":56465,"BSTAR":0.00072678,"MEAN_MOTION_DOT":4.75e-6,"MEAN_MOTION_DDOT":0},{"OBJECT_NAME":"UNKNOWN","OBJECT_ID":"","EPOCH":"2026-03-26T16:15:10.271808","MEAN_MOTION":13.15713657,"ECCENTRICITY":0.0450967,"INCLINATION":66.9383,"RA_OF_ASC_NODE":331.4073,"ARG_OF_PERICENTER":98.6715,"MEAN_ANOMALY":266.567,"EPHEMERIS_TYPE":0,"CLASSIFICATION_TYPE":"U","NORAD_CAT_ID":82363,"ELEMENT_SET_NO":999,"REV_AT_EPOCH":30393,"BSTAR":0.0017607,"MEAN_MOTION_DOT":1.056e-5,"MEAN_MOTION_DDOT":0},{"OBJECT_NAME":"UNKNOWN","OBJECT_ID":"","EPOCH":"2026-03-27T07:05:27.796704","MEAN_MOTION":13.98234218,"ECCENTRICITY":0.0083852,"INCLINATION":98.8942,"RA_OF_ASC_NODE":103.2003,"ARG_OF_PERICENTER":50.3911,"MEAN_ANOMALY":310.4617,"EPHEMERIS_TYPE":0,"CLASSIFICATION_TYPE":"U","NORAD_CAT_ID":82369,"ELEMENT_SET_NO":999,"REV_AT_EPOCH":57178,"BSTAR":3.5849e-5,"MEAN_MOTION_DOT":1.0e-7,"MEAN_MOTION_DDOT":0},{"OBJECT_NAME":"UNKNOWN","OBJECT_ID":"","EPOCH":"2026-03-28T02:29:04.872768","MEAN_MOTION":14.8668904,"ECCENTRICITY":0.0007445,"INCLINATION":98.3903,"RA_OF_ASC_NODE":322.2457,"ARG_OF_PERICENTER":153.0882,"MEAN_ANOMALY":207.0719,"EPHEMERIS_TYPE":0,"CLASSIFICATION_TYPE":"U","NORAD_CAT_ID":82381,"ELEMENT_SET_NO":999,"REV_AT_EPOCH":52643,"BSTAR":0.0024981,"MEAN_MOTION_DOT":0.00022216,"MEAN_MOTION_DDOT":0},{"OBJECT_NAME":"UNKNOWN","OBJECT_ID":"","EPOCH":"2026-03-28T08:05:14.067168","MEAN_MOTION":15.05078201,"ECCENTRICITY":0.0009405,"INCLINATION":86.6584,"RA_OF_ASC_NODE":109.926,"ARG_OF_PERICENTER":123.1712,"MEAN_ANOMALY":237.0427,"EPHEMERIS_TYPE":0,"CLASSIFICATION_TYPE":"U","NORAD_CAT_ID":82402,"ELEMENT_SET_NO":999,"REV_AT_EPOCH":47034,"BSTAR":0.0004929,"MEAN_MOTION_DOT":7.043e-5,"MEAN_MOTION_DDOT":0},{"OBJECT_NAME":"UNKNOWN","OBJECT_ID":"","EPOCH":"2026-03-26T03:26:59.749440","MEAN_MOTION":14.59007806,"ECCENTRICITY":0.0057389,"INCLINATION":74.0054,"RA_OF_ASC_NODE":143.2911,"ARG_OF_PERICENTER":281.9385,"MEAN_ANOMALY":77.535,"EPHEMERIS_TYPE":0,"CLASSIFICATION_TYPE":"U","NORAD_CAT_ID":82432,"ELEMENT_SET_NO":999,"REV_AT_EPOCH":49798,"BSTAR":0.00031017,"MEAN_MOTION_DOT":1.459e-5,"MEAN_MOTION_DDOT":0},{"OBJECT_NAME":"UNKNOWN","OBJECT_ID":"","EPOCH":"2026-03-28T04:06:58.373280","MEAN_MOTION":15.0534793,"ECCENTRICITY":0.0007063,"INCLINATION":85.8751,"RA_OF_ASC_NODE":142.9518,"ARG_OF_PERICENTER":228.6768,"MEAN_ANOMALY":131.3859,"EPHEMERIS_TYPE":0,"CLASSIFICATION_TYPE":"U","NORAD_CAT_ID":82448,"ELEMENT_SET_NO":999,"REV_AT_EPOCH":45289,"BSTAR":0.0004183,"MEAN_MOTION_DOT":6.022e-5,"MEAN_MOTION_DDOT":0},{"OBJECT_NAME":"UNKNOWN","OBJECT_ID":"","EPOCH":"2026-03-27T04:16:46.994016","MEAN_MOTION":12.39712638,"ECCENTRICITY":0.0094173,"INCLINATION":102.1954,"RA_OF_ASC_NODE":47.542,"ARG_OF_PERICENTER":14.7421,"MEAN_ANOMALY":345.6356,"EPHEMERIS_TYPE":0,"CLASSIFICATION_TYPE":"U","NORAD_CAT_ID":82453,"ELEMENT_SET_NO":999,"REV_AT_EPOCH":55900,"BSTAR":0.00046906,"MEAN_MOTION_DOT":1.8e-7,"MEAN_MOTION_DDOT":0},{"OBJECT_NAME":"UNKNOWN","OBJECT_ID":"","EPOCH":"2026-03-28T11:45:21.706848","MEAN_MOTION":13.55842814,"ECCENTRICITY":0.0043682,"INCLINATION":99.3479,"RA_OF_ASC_NODE":108.6535,"ARG_OF_PERICENTER":286.2022,"MEAN_ANOMALY":73.4313,"EPHEMERIS_TYPE":0,"CLASSIFICATION_TYPE":"U","NORAD_CAT_ID":82484,"ELEMENT_SET_NO":999,"REV_AT_EPOCH":60496,"BSTAR":0.00036998,"MEAN_MOTION_DOT":2.18e-6,"MEAN_MOTION_DDOT":0},{"OBJECT_NAME":"UNKNOWN","OBJECT_ID":"","EPOCH":"2026-03-26T15:40:16.000608","MEAN_MOTION":14.90624678,"ECCENTRICITY":0.0008851,"INCLINATION":74.0053,"RA_OF_ASC_NODE":174.0815,"ARG_OF_PERICENTER":297.2282,"MEAN_ANOMALY":62.7997,"EPHEMERIS_TYPE":0,"CLASSIFICATION_TYPE":"U","NORAD_CAT_ID":82494,"ELEMENT_SET_NO":999,"REV_AT_EPOCH":10042,"BSTAR":0.0016875,"MEAN_MOTION_DOT":0.00016546,"MEAN_MOTION_DDOT":0},{"OBJECT_NAME":"UNKNOWN","OBJECT_ID":"","EPOCH":"2026-03-22T22:30:07.850304","MEAN_MOTION":14.19309384,"ECCENTRICITY":0.0120191,"INCLINATION":70.9651,"RA_OF_ASC_NODE":151.6425,"ARG_OF_PERICENTER":320.79,"MEAN_ANOMALY":38.4562,"EPHEMERIS_TYPE":0,"CLASSIFICATION_TYPE":"U","NORAD_CAT_ID":82500,"ELEMENT_SET_NO":999,"REV_AT_EPOCH":63316,"BSTAR":0.0017015,"MEAN_MOTION_DOT":3.794e-5,"MEAN_MOTION_DDOT":0},{"OBJECT_NAME":"UNKNOWN","OBJECT_ID":"","EPOCH":"2026-03-27T23:52:35.618880","MEAN_MOTION":14.36152293,"ECCENTRICITY":0.0131826,"INCLINATION":73.2818,"RA_OF_ASC_NODE":339.6793,"ARG_OF_PERICENTER":104.3599,"MEAN_ANOMALY":272.8836,"EPHEMERIS_TYPE":0,"CLASSIFICATION_TYPE":"U","NORAD_CAT_ID":82524,"ELEMENT_SET_NO":999,"REV_AT_EPOCH":59214,"BSTAR":0.001012,"MEAN_MOTION_DOT":3.226e-5,"MEAN_MOTION_DDOT":0},{"OBJECT_NAME":"UNKNOWN","OBJECT_ID":"","EPOCH":"2026-03-20T17:10:56.256960","MEAN_MOTION":13.41206174,"ECCENTRICITY":0.0237659,"INCLINATION":99.7774,"RA_OF_ASC_NODE":164.9843,"ARG_OF_PERICENTER":1.9224,"MEAN_ANOMALY":150.6955,"EPHEMERIS_TYPE":0,"CLASSIFICATION_TYPE":"U","NORAD_CAT_ID":82529,"ELEMENT_SET_NO":999,"REV_AT_EPOCH":60287,"BSTAR":0.00070169,"MEAN_MOTION_DOT":4.16e-6,"MEAN_MOTION_DDOT":0},{"OBJECT_NAME":"UNKNOWN","OBJECT_ID":"","EPOCH":"2026-03-24T03:05:06.759744","MEAN_MOTION":13.90952707,"ECCENTRICITY":0.0012255,"INCLINATION":99.9969,"RA_OF_ASC_NODE":38.2464,"ARG_OF_PERICENTER":39.1891,"MEAN_ANOMALY":332.528,"EPHEMERIS_TYPE":0,"CLASSIFICATION_TYPE":"U","NORAD_CAT_ID":82560,"ELEMENT_SET_NO":999,"REV_AT_EPOCH":62596,"BSTAR":0.00096063,"MEAN_MOTION_DOT":1.154e-5,"MEAN_MOTION_DDOT":0}]
